{
  "type": "FeatureCollection",
  "features": [
    {
      "type": "Feature",
      "properties": {
        "norad_id": 40730,
        "name": "GPS BIIF-10 (PRN 08)",
        "group": "gps-ops",
        "lat": 32.43776621181699,
        "lon": 67.60410163020453,
        "alt_km": 20284.880797483343,
        "timestamp": "2025-12-08T10:52:03.206353+00:00",
        "meta_object_name": "GPS BIIF-10 (PRN 08)",
        "meta_object_id": "2015-033A",
        "meta_epoch": "2025-12-07T18:21:19.521792",
        "meta_mean_motion": 2.00565772,
        "meta_eccentricity": 0.0110644,
        "meta_inclination": 54.1351,
        "meta_ra_of_asc_node": 274.9776,
        "meta_arg_of_pericenter": 26.6875,
        "meta_mean_anomaly": 333.8934,
        "meta_ephemeris_type": 0,
        "meta_classification_type": "U",
        "meta_norad_cat_id": 40730,
        "meta_element_set_no": 999,
        "meta_rev_at_epoch": 7615,
        "meta_bstar": 0,
        "meta_mean_motion_dot": -3.6e-07,
        "meta_mean_motion_ddot": 0,
        "tle_line1": "1 40730U 15033A   25341.76480928 -.00000036  00000+0  00000+0 0  9993",
        "tle_line2": "2 40730  54.1351 274.9776 0110644  26.6875 333.8934  2.00565772 76153"
      },
      "geometry": {
        "type": "Point",
        "coordinates": [
          67.60410163020453,
          32.43776621181699
        ]
      }
    },
    {
      "type": "Feature",
      "properties": {
        "norad_id": 41019,
        "name": "GPS BIIF-11 (PRN 10)",
        "group": "gps-ops",
        "lat": 56.77555853028483,
        "lon": 132.02621876626264,
        "alt_km": 20391.780270430103,
        "timestamp": "2025-12-08T10:52:03.206366+00:00",
        "meta_object_name": "GPS BIIF-11 (PRN 10)",
        "meta_object_id": "2015-062A",
        "meta_epoch": "2025-12-07T07:48:52.356672",
        "meta_mean_motion": 2.00566963,
        "meta_eccentricity": 0.01106642,
        "meta_inclination": 56.8282,
        "meta_ra_of_asc_node": 38.2118,
        "meta_arg_of_pericenter": 229.7833,
        "meta_mean_anomaly": 129.2989,
        "meta_ephemeris_type": 0,
        "meta_classification_type": "U",
        "meta_norad_cat_id": 41019,
        "meta_element_set_no": 999,
        "meta_rev_at_epoch": 7398,
        "meta_bstar": 0,
        "meta_mean_motion_dot": -7.2e-07,
        "meta_mean_motion_ddot": 0,
        "tle_line1": "1 41019U 15062A   25341.32560598 -.00000072  00000+0  00000+0 0  9990",
        "tle_line2": "2 41019  56.8282  38.2118 0110664 229.7833 129.2989  2.00566963 73987"
      },
      "geometry": {
        "type": "Point",
        "coordinates": [
          132.02621876626264,
          56.77555853028483
        ]
      }
    },
    {
      "type": "Feature",
      "properties": {
        "norad_id": 41328,
        "name": "GPS BIIF-12 (PRN 32)",
        "group": "gps-ops",
        "lat": 27.403450816037406,
        "lon": 117.9623578532101,
        "alt_km": 20391.055084953754,
        "timestamp": "2025-12-08T10:52:03.206377+00:00",
        "meta_object_name": "GPS BIIF-12 (PRN 32)",
        "meta_object_id": "2016-007A",
        "meta_epoch": "2025-12-07T09:47:29.747616",
        "meta_mean_motion": 2.00560863,
        "meta_eccentricity": 0.0091895,
        "meta_inclination": 55.4032,
        "meta_ra_of_asc_node": 97.0687,
        "meta_arg_of_pericenter": 243.44,
        "meta_mean_anomaly": 115.5952,
        "meta_ephemeris_type": 0,
        "meta_classification_type": "U",
        "meta_norad_cat_id": 41328,
        "meta_element_set_no": 999,
        "meta_rev_at_epoch": 7199,
        "meta_bstar": 0,
        "meta_mean_motion_dot": -4e-08,
        "meta_mean_motion_ddot": 0,
        "tle_line1": "1 41328U 16007A   25341.40798319 -.00000004  00000+0  00000+0 0  9991",
        "tle_line2": "2 41328  55.4032  97.0687 0091895 243.4400 115.5952  2.00560863 71999"
      },
      "geometry": {
        "type": "Point",
        "coordinates": [
          117.9623578532101,
          27.403450816037406
        ]
      }
    },
    {
      "type": "Feature",
      "properties": {
        "norad_id": 43873,
        "name": "GPS BIII-1  (PRN 04)",
        "group": "gps-ops",
        "lat": -51.40156990056765,
        "lon": 40.56046513099036,
        "alt_km": 20195.224848576087,
        "timestamp": "2025-12-08T10:52:03.206389+00:00",
        "meta_object_name": "GPS BIII-1  (PRN 04)",
        "meta_object_id": "2018-109A",
        "meta_epoch": "2025-12-07T19:01:44.970240",
        "meta_mean_motion": 2.00553303,
        "meta_eccentricity": 0.00371945,
        "meta_inclination": 55.5649,
        "meta_ra_of_asc_node": 99.742,
        "meta_arg_of_pericenter": 194.7873,
        "meta_mean_anomaly": 336.926,
        "meta_ephemeris_type": 0,
        "meta_classification_type": "U",
        "meta_norad_cat_id": 43873,
        "meta_element_set_no": 999,
        "meta_rev_at_epoch": 5123,
        "meta_bstar": 0,
        "meta_mean_motion_dot": 3e-08,
        "meta_mean_motion_ddot": 0,
        "tle_line1": "1 43873U 18109A   25341.79288160  .00000003  00000+0  00000+0 0  9991",
        "tle_line2": "2 43873  55.5649  99.7420 0037194 194.7873 336.9260  2.00553303 51236"
      },
      "geometry": {
        "type": "Point",
        "coordinates": [
          40.56046513099036,
          -51.40156990056765
        ]
      }
    },
    {
      "type": "Feature",
      "properties": {
        "norad_id": 44506,
        "name": "GPS BIII-2  (PRN 18)",
        "group": "gps-ops",
        "lat": -4.0205572435130215,
        "lon": 161.4632764198474,
        "alt_km": 20033.994524552847,
        "timestamp": "2025-12-08T10:52:03.206402+00:00",
        "meta_object_name": "GPS BIII-2  (PRN 18)",
        "meta_object_id": "2019-056A",
        "meta_epoch": "2025-12-07T10:30:03.799008",
        "meta_mean_motion": 2.00565766,
        "meta_eccentricity": 0.00577762,
        "meta_inclination": 55.723,
        "meta_ra_of_asc_node": 338.7627,
        "meta_arg_of_pericenter": 198.4737,
        "meta_mean_anomaly": 333.4267,
        "meta_ephemeris_type": 0,
        "meta_classification_type": "U",
        "meta_norad_cat_id": 44506,
        "meta_element_set_no": 999,
        "meta_rev_at_epoch": 4622,
        "meta_bstar": 0,
        "meta_mean_motion_dot": -8.3e-07,
        "meta_mean_motion_ddot": 0,
        "tle_line1": "1 44506U 19056A   25341.43754397 -.00000083  00000+0  00000+0 0  9997",
        "tle_line2": "2 44506  55.7230 338.7627 0057776 198.4737 333.4267  2.00565766 46229"
      },
      "geometry": {
        "type": "Point",
        "coordinates": [
          161.4632764198474,
          -4.0205572435130215
        ]
      }
    },
    {
      "type": "Feature",
      "properties": {
        "norad_id": 45854,
        "name": "GPS BIII-3  (PRN 23)",
        "group": "gps-ops",
        "lat": 40.800126604384374,
        "lon": -178.39920290216773,
        "alt_km": 20134.75784759674,
        "timestamp": "2025-12-08T10:52:03.206413+00:00",
        "meta_object_name": "GPS BIII-3  (PRN 23)",
        "meta_object_id": "2020-041A",
        "meta_epoch": "2025-12-07T06:57:27.444672",
        "meta_mean_motion": 2.00561718,
        "meta_eccentricity": 0.00603563,
        "meta_inclination": 56.5433,
        "meta_ra_of_asc_node": 36.3977,
        "meta_arg_of_pericenter": 203.2104,
        "meta_mean_anomaly": 166.2515,
        "meta_ephemeris_type": 0,
        "meta_classification_type": "U",
        "meta_norad_cat_id": 45854,
        "meta_element_set_no": 999,
        "meta_rev_at_epoch": 4019,
        "meta_bstar": 0,
        "meta_mean_motion_dot": -7.4e-07,
        "meta_mean_motion_ddot": 0,
        "tle_line1": "1 45854U 20041A   25341.28990098 -.00000074  00000+0  00000+0 0  9993",
        "tle_line2": "2 45854  56.5433  36.3977 0060356 203.2104 166.2515  2.00561718 40191"
      },
      "geometry": {
        "type": "Point",
        "coordinates": [
          -178.39920290216773,
          40.800126604384374
        ]
      }
    },
    {
      "type": "Feature",
      "properties": {
        "norad_id": 46826,
        "name": "GPS BIII-4  (PRN 14)",
        "group": "gps-ops",
        "lat": 53.00499392859608,
        "lon": -36.006471725495224,
        "alt_km": 20218.697024238594,
        "timestamp": "2025-12-08T10:52:03.206425+00:00",
        "meta_object_name": "GPS BIII-4  (PRN 14)",
        "meta_object_id": "2020-078A",
        "meta_epoch": "2025-11-12T03:01:29.191584",
        "meta_mean_motion": 2.00567032,
        "meta_eccentricity": 0.00639112,
        "meta_inclination": 54.0223,
        "meta_ra_of_asc_node": 219.5836,
        "meta_arg_of_pericenter": 203.4986,
        "meta_mean_anomaly": 326.7753,
        "meta_ephemeris_type": 0,
        "meta_classification_type": "U",
        "meta_norad_cat_id": 46826,
        "meta_element_set_no": 999,
        "meta_rev_at_epoch": 3715,
        "meta_bstar": 0,
        "meta_mean_motion_dot": -3.4e-07,
        "meta_mean_motion_ddot": 0,
        "tle_line1": "1 46826U 20078A   25316.12603231 -.00000034  00000+0  00000+0 0  9994",
        "tle_line2": "2 46826  54.0223 219.5836 0063911 203.4986 326.7753  2.00567032 37154"
      },
      "geometry": {
        "type": "Point",
        "coordinates": [
          -36.006471725495224,
          53.00499392859608
        ]
      }
    }
  ]
}